{
    "links": {
        "self": "http://www.neowsapp.com/rest/v1/neo/3718389?api_key=iIulBulltgU6a56xZRHN4H3l9WmuAYTsLGpBGhQ2"
    },
    "id": "3718389",
    "neo_reference_id": "3718389",
    "name": "(2015 HF170)",
    "designation": "2015 HF170",
    "nasa_jpl_url": "http://ssd.jpl.nasa.gov/sbdb.cgi?sstr=3718389",
    "absolute_magnitude_h": 23.7,
    "estimated_diameter": {
        "kilometers": {
            "estimated_diameter_min": 0.0483676488,
            "estimated_diameter_max": 0.1081533507
        },
        "meters": {
            "estimated_diameter_min": 48.3676488219,
            "estimated_diameter_max": 108.1533506775
        },
        "miles": {
            "estimated_diameter_min": 0.0300542543,
            "estimated_diameter_max": 0.0672033557
        },
        "feet": {
            "estimated_diameter_min": 158.6865169607,
            "estimated_diameter_max": 354.8338390368
        }
    },
    "is_potentially_hazardous_asteroid": false,
    "close_approach_data": [
        {
            "close_approach_date": "2008-04-26",
            "close_approach_date_full": "2008-Apr-26 00:54",
            "epoch_date_close_approach": 1209171240000,
            "relative_velocity": {
                "kilometers_per_second": "6.1383325002",
                "kilometers_per_hour": "22097.9970005517",
                "miles_per_hour": "13730.8359695928"
            },
            "miss_distance": {
                "astronomical": "0.1783133777",
                "lunar": "69.3639039253",
                "kilometers": "26675301.496425499",
                "miles": "16575263.7446859262"
            },
            "orbiting_body": "Earth"
        },
        {
            "close_approach_date": "2015-04-26",
            "close_approach_date_full": "2015-Apr-26 15:06",
            "epoch_date_close_approach": 1430060760000,
            "relative_velocity": {
                "kilometers_per_second": "6.1400668313",
                "kilometers_per_hour": "22104.2405927285",
                "miles_per_hour": "13734.7154949651"
            },
            "miss_distance": {
                "astronomical": "0.1733526369",
                "lunar": "67.4341757541",
                "kilometers": "25933185.239123403",
                "miles": "16114134.0852648414"
            },
            "orbiting_body": "Earth"
        },
        {
            "close_approach_date": "2022-04-26",
            "close_approach_date_full": "2022-Apr-26 12:29",
            "epoch_date_close_approach": 1650976140000,
            "relative_velocity": {
                "kilometers_per_second": "6.1388896401",
                "kilometers_per_hour": "22100.0027043602",
                "miles_per_hour": "13732.0822359398"
            },
            "miss_distance": {
                "astronomical": "0.173832373",
                "lunar": "67.620793097",
                "kilometers": "26004952.73784551",
                "miles": "16158728.341107638"
            },
            "orbiting_body": "Earth"
        }
    ],
    "orbital_data": {
        "orbit_id": "6",
        "orbit_determination_date": "2017-04-06 08:34:02",
        "first_observation_date": "2015-04-25",
        "last_observation_date": "2015-05-11",
        "data_arc_in_days": 16,
        "observations_used": 18,
        "orbit_uncertainty": "7",
        "minimum_orbit_intersection": ".158462",
        "jupiter_tisserand_invariant": "4.030",
        "epoch_osculation": "2459000.5",
        "eccentricity": ".3447809933797203",
        "semi_major_axis": "1.759303490550755",
        "inclination": "10.82357401357028",
        "ascending_node_longitude": "46.05770260530445",
        "orbital_period": "852.3335297908831",
        "perihelion_distance": "1.152729085422256",
        "perihelion_argument": "156.3284784775266",
        "aphelion_distance": "2.365877895679254",
        "perihelion_time": "2458825.489582728807",
        "mean_anomaly": "73.91912674500455",
        "mean_motion": ".4223698674488668",
        "equinox": "J2000",
        "orbit_class": {
            "orbit_class_type": "AMO",
            "orbit_class_description": "Near-Earth asteroid orbits similar to that of 1221 Amor",
            "orbit_class_range": "1.017 AU < q (perihelion) < 1.3 AU"
        }
    },
    "is_sentry_object": false
}